{"type": "FeatureCollection", "features": [ {"type": "Feature", "properties": {"norad_id": 66885, "name": "STARLINK-35954", "group": "last-30-days", "lat": 20.054852344048992, "lon": 85.22004130043116, "alt_km": 292.9127054887949, "timestamp": "2025-12-13T15:35:10.878471+00:00", "meta": {"OBJECT_NAME": "STARLINK-35954", "OBJECT_ID": "2025-283H", "EPOCH": "2025-12-12T20:00:01.999872", "MEAN_MOTION": 15.94406474, "ECCENTRICITY": 0.00011379, "INCLINATION": 53.1546, "RA_OF_ASC_NODE": 73.5, "ARG_OF_PERICENTER": 53.6867, "MEAN_ANOMALY": 327.8441, "EPHEMERIS_TYPE": 0, "CLASSIFICATION_TYPE": "U", "NORAD_CAT_ID": 66885, "ELEMENT_SET_NO": 999, "REV_AT_EPOCH": 244, "BSTAR": -0.0033284986, "MEAN_MOTION_DOT": -0.01281516, "MEAN_MOTION_DDOT": 0.0004916383}, "tle": {"line1": "1 66885U 25283H   25346.83335648 -.01281516  49164-3 -33285-2 0  9999", "line2": "2 66885  53.1546  73.5000 0001137  53.6867 327.8441 15.94406474  2444"}}, "geometry": {"type": "Point", "coordinates": [85.22004130043116, 20.054852344048992]}}, {"type": "Feature", "properties": {"norad_id": 66886, "name": "STARLINK-35900", "group": "last-30-days", "lat": 23.939779460876736, "lon": 88.7683514123176, "alt_km": 291.95088524696985, "timestamp": "2025-12-13T15:35:10.878483+00:00", "meta": {"OBJECT_NAME": "STARLINK-35900", "OBJECT_ID": "2025-283J", "EPOCH": "2025-12-12T20:00:01.999872", "MEAN_MOTION": 15.94540765, "ECCENTRICITY": 0.00010601, "INCLINATION": 53.1547, "RA_OF_ASC_NODE": 73.4901, "ARG_OF_PERICENTER": 49.4487, "MEAN_ANOMALY": 336.8084, "EPHEMERIS_TYPE": 0, "CLASSIFICATION_TYPE": "U", "NORAD_CAT_ID": 66886, "ELEMENT_SET_NO": 999, "REV_AT_EPOCH": 244, "BSTAR": -0.0033408912, "MEAN_MOTION_DOT": -0.01295371, "MEAN_MOTION_DDOT": 0.00050203525}, "tle": {"line1": "1 66886U 25283J   25346.83335648 -.01295371  50204-3 -33409-2 0  9999", "line2": "2 66886  53.1547  73.4901 0001060  49.4487 336.8084 15.94540765  2446"}}, "geometry": {"type": "Point", "coordinates": [88.7683514123176, 23.939779460876736]}}, {"type": "Feature", "properties": {"norad_id": 66887, "name": "STARLINK-35925", "group": "last-30-days", "lat": 25.56597364699755, "lon": 90.34016224298793, "alt_km": 291.5710565874788, "timestamp": "2025-12-13T15:35:10.878492+00:00", "meta": {"OBJECT_NAME": "STARLINK-35925", "OBJECT_ID": "2025-283K", "EPOCH": "2025-12-12T20:00:01.999872", "MEAN_MOTION": 15.94600947, "ECCENTRICITY": 0.00010591, "INCLINATION": 53.1548, "RA_OF_ASC_NODE": 73.4861, "ARG_OF_PERICENTER": 51.8657, "MEAN_ANOMALY": 336.4091, "EPHEMERIS_TYPE": 0, "CLASSIFICATION_TYPE": "U", "NORAD_CAT_ID": 66887, "ELEMENT_SET_NO": 999, "REV_AT_EPOCH": 244, "BSTAR": -0.0033653694, "MEAN_MOTION_DOT": -0.01308905, "MEAN_MOTION_DDOT": 0.00051193983}, "tle": {"line1": "1 66887U 25283K   25346.83335648 -.01308905  51194-3 -33654-2 0  9999", "line2": "2 66887  53.1548  73.4861 0001059  51.8657 336.4091 15.94600947  2440"}}, "geometry": {"type": "Point", "coordinates": [90.34016224298793, 25.56597364699755]}}, {"type": "Feature", "properties": {"norad_id": 66888, "name": "STARLINK-35919", "group": "last-30-days", "lat": 27.177227915780716, "lon": 91.95730294425836, "alt_km": 291.1734723744785, "timestamp": "2025-12-13T15:35:10.878502+00:00", "meta": {"OBJECT_NAME": "STARLINK-35919", "OBJECT_ID": "2025-283L", "EPOCH": "2025-12-12T20:00:01.999872", "MEAN_MOTION": 15.94658835, "ECCENTRICITY": 0.00010517, "INCLINATION": 53.1547, "RA_OF_ASC_NODE": 73.4817, "ARG_OF_PERICENTER": 57.4889, "MEAN_ANOMALY": 332.7895, "EPHEMERIS_TYPE": 0, "CLASSIFICATION_TYPE": "U", "NORAD_CAT_ID": 66888, "ELEMENT_SET_NO": 999, "REV_AT_EPOCH": 244, "BSTAR": -0.003362331, "MEAN_MOTION_DOT": -0.01311745, "MEAN_MOTION_DDOT": 0.0005142642}, "tle": {"line1": "1 66888U 25283L   25346.83335648 -.01311745  51426-3 -33623-2 0  9990", "line2": "2 66888  53.1547  73.4817 0001051  57.4889 332.7895 15.94658835  2442"}}, "geometry": {"type": "Point", "coordinates": [91.95730294425836, 27.177227915780716]}}, {"type": "Feature", "properties": {"norad_id": 66889, "name": "STARLINK-35852", "group": "last-30-days", "lat": 29.02079927711678, "lon": 93.89170083118377, "alt_km": 290.64709768200373, "timestamp": "2025-12-13T15:35:10.878514+00:00", "meta": {"OBJECT_NAME": "STARLINK-35852", "OBJECT_ID": "2025-283M", "EPOCH": "2025-12-12T20:00:01.999872", "MEAN_MOTION": 15.94727288, "ECCENTRICITY": 0.00011082, "INCLINATION": 53.1542, "RA_OF_ASC_NODE": 73.4767, "ARG_OF_PERICENTER": 54.95, "MEAN_ANOMALY": 337.6588, "EPHEMERIS_TYPE": 0, "CLASSIFICATION_TYPE": "U", "NORAD_CAT_ID": 66889, "ELEMENT_SET_NO": 999, "REV_AT_EPOCH": 244, "BSTAR": -0.0033727999, "MEAN_MOTION_DOT": -0.01320565, "MEAN_MOTION_DDOT": 0.00052093975}, "tle": {"line1": "1 66889U 25283M   25346.83335648 -.01320565  52094-3 -33728-2 0  9999", "line2": "2 66889  53.1542  73.4767 0001108  54.9500 337.6588 15.94727288  2449"}}, "geometry": {"type": "Point", "coordinates": [93.89170083118377, 29.02079927711678]}}, {"type": "Feature", "properties": {"norad_id": 66890, "name": "STARLINK-35885", "group": "last-30-days", "lat": 30.747278849833023, "lon": 95.79571241271604, "alt_km": 290.09890896784964, "timestamp": "2025-12-13T15:35:10.878524+00:00", "meta": {"OBJECT_NAME": "STARLINK-35885", "OBJECT_ID": "2025-283N", "EPOCH": "2025-12-12T20:00:01.999872", "MEAN_MOTION": 15.9479, "ECCENTRICITY": 0.00011644, "INCLINATION": 53.1545, "RA_OF_ASC_NODE": 73.4723, "ARG_OF_PERICENTER": 51.6315, "MEAN_ANOMALY": 343.1708, "EPHEMERIS_TYPE": 0, "CLASSIFICATION_TYPE": "U", "NORAD_CAT_ID": 66890, "ELEMENT_SET_NO": 999, "REV_AT_EPOCH": 244, "BSTAR": -0.0033501166, "MEAN_MOTION_DOT": -0.01316161, "MEAN_MOTION_DDOT": 0.00051810491}, "tle": {"line1": "1 66890U 25283N   25346.83335648 -.01316161  51810-3 -33501-2 0  9992", "line2": "2 66890  53.1545  73.4723 0001164  51.6315 343.1708 15.94790000  2444"}}, "geometry": {"type": "Point", "coordinates": [95.79571241271604, 30.747278849833023]}}, {"type": "Feature", "properties": {"norad_id": 66891, "name": "STARLINK-35855", "group": "last-30-days", "lat": 32.483453768023764, "lon": 97.8151679150801, "alt_km": 289.655763230744, "timestamp": "2025-12-13T15:35:10.878534+00:00", "meta": {"OBJECT_NAME": "STARLINK-35855", "OBJECT_ID": "2025-283P", "EPOCH": "2025-12-12T20:00:01.999872", "MEAN_MOTION": 15.94848878, "ECCENTRICITY": 0.0001142, "INCLINATION": 53.1545, "RA_OF_ASC_NODE": 73.4676, "ARG_OF_PERICENTER": 51.9351, "MEAN_ANOMALY": 345.1389, "EPHEMERIS_TYPE": 0, "CLASSIFICATION_TYPE": "U", "NORAD_CAT_ID": 66891, "ELEMENT_SET_NO": 999, "REV_AT_EPOCH": 244, "BSTAR": -0.0033415833, "MEAN_MOTION_DOT": -0.01316948, "MEAN_MOTION_DDOT": 0.00051897677}, "tle": {"line1": "1 66891U 25283P   25346.83335648 -.01316948  51898-3 -33416-2 0  9997", "line2": "2 66891  53.1545  73.4676 0001142  51.9351 345.1389 15.94848878  2445"}}, "geometry": {"type": "Point", "coordinates": [97.8151679150801, 32.483453768023764]}}, {"type": "Feature", "properties": {"norad_id": 66892, "name": "STARLINK-35883", "group": "last-30-days", "lat": 34.10455759636979, "lon": 99.81015083970169, "alt_km": 289.30825918462415, "timestamp": "2025-12-13T15:35:10.878543+00:00", "meta": {"OBJECT_NAME": "STARLINK-35883", "OBJECT_ID": "2025-283Q", "EPOCH": "2025-12-12T20:00:01.999872", "MEAN_MOTION": 15.94927975, "ECCENTRICITY": 0.00011105, "INCLINATION": 53.1543, "RA_OF_ASC_NODE": 73.4628, "ARG_OF_PERICENTER": 50.702, "MEAN_ANOMALY": 348.5355, "EPHEMERIS_TYPE": 0, "CLASSIFICATION_TYPE": "U", "NORAD_CAT_ID": 66892, "ELEMENT_SET_NO": 999, "REV_AT_EPOCH": 238, "BSTAR": -0.003407852, "MEAN_MOTION_DOT": -0.01348387, "MEAN_MOTION_DDOT": 0.00054221383}, "tle": {"line1": "1 66892U 25283Q   25346.83335648 -.01348387  54221-3 -34079-2 0  9999", "line2": "2 66892  53.1543  73.4628 0001110  50.7020 348.5355 15.94927975  2385"}}, "geometry": {"type": "Point", "coordinates": [99.81015083970169, 34.10455759636979]}}, {"type": "Feature", "properties": {"norad_id": 66893, "name": "STARLINK-36033", "group": "last-30-days", "lat": 35.64010716774398, "lon": 101.81286296993062, "alt_km": 288.86264680799286, "timestamp": "2025-12-13T15:35:10.878553+00:00", "meta": {"OBJECT_NAME": "STARLINK-36033", "OBJECT_ID": "2025-283R", "EPOCH": "2025-12-12T20:00:01.999872", "MEAN_MOTION": 15.9499162, "ECCENTRICITY": 0.00011756, "INCLINATION": 53.1543, "RA_OF_ASC_NODE": 73.4586, "ARG_OF_PERICENTER": 53.1681, "MEAN_ANOMALY": 348.1485, "EPHEMERIS_TYPE": 0, "CLASSIFICATION_TYPE": "U", "NORAD_CAT_ID": 66893, "ELEMENT_SET_NO": 999, "REV_AT_EPOCH": 244, "BSTAR": -0.0034161966, "MEAN_MOTION_DOT": -0.01356232, "MEAN_MOTION_DDOT": 0.00054833219}, "tle": {"line1": "1 66893U 25283R   25346.83335648 -.01356232  54833-3 -34162-2 0  9990", "line2": "2 66893  53.1543  73.4586 0001175  53.1681 348.1485 15.94991620  2445"}}, "geometry": {"type": "Point", "coordinates": [101.81286296993062, 35.64010716774398]}}, {"type": "Feature", "properties": {"norad_id": 66894, "name": "STARLINK-35718", "group": "last-30-days", "lat": 37.54121506064736, "lon": 104.47066762926946, "alt_km": 288.362994989614, "timestamp": "2025-12-13T15:35:10.878565+00:00", "meta": {"OBJECT_NAME": "STARLINK-35718", "OBJECT_ID": "2025-283S", "EPOCH": "2025-12-12T20:00:01.999872", "MEAN_MOTION": 15.95056747, "ECCENTRICITY": 0.00010714, "INCLINATION": 53.1545, "RA_OF_ASC_NODE": 73.4533, "ARG_OF_PERICENTER": 49.3068, "MEAN_ANOMALY": 354.639, "EPHEMERIS_TYPE": 0, "CLASSIFICATION_TYPE": "U", "NORAD_CAT_ID": 66894, "ELEMENT_SET_NO": 999, "REV_AT_EPOCH": 244, "BSTAR": -0.0033647927, "MEAN_MOTION_DOT": -0.01340684, "MEAN_MOTION_DDOT": 0.00053727636}, "tle": {"line1": "1 66894U 25283S   25346.83335648 -.01340684  53728-3 -33648-2 0  9995", "line2": "2 66894  53.1545  73.4533 0001071  49.3068 354.6390 15.95056747  2441"}}, "geometry": {"type": "Point", "coordinates": [104.47066762926946, 37.54121506064736]}}]}